SOYUZ-MS 05             
1 42898U 17043A   17343.59062852  .00004112  00000-0  69339-4 0  9993
2 42898  51.6420 243.9083 0003080 212.9033 219.4815 15.54123815 20839
